[{"OBJECT_NAME":"STARLINK-34848","OBJECT_ID":"2025-191Z","EPOCH":"2026-03-09T15:13:22.082304","MEAN_MOTION":15.05648129,"ECCENTRICITY":0.0003019,"INCLINATION":97.6015,"RA_OF_ASC_NODE":301.5112,"ARG_OF_PERICENTER":78.1384,"MEAN_ANOMALY":282.0182,"EPHEMERIS_TYPE":0,"CLASSIFICATION_TYPE":"U","NORAD_CAT_ID":65402,"ELEMENT_SET_NO":999,"REV_AT_EPOCH":3026,"BSTAR":0.00031739,"MEAN_MOTION_DOT":4.522e-5,"MEAN_MOTION_DDOT":0},{"OBJECT_NAME":"RAPIDEYE 2","OBJECT_ID":"2008-040A","EPOCH":"2026-03-09T16:28:01.823808","MEAN_MOTION":15.04945954,"ECCENTRICITY":0.00177122,"INCLINATION":97.4373,"RA_OF_ASC_NODE":102.2221,"ARG_OF_PERICENTER":194.2548,"MEAN_ANOMALY":165.8182,"EPHEMERIS_TYPE":0,"CLASSIFICATION_TYPE":"U","NORAD_CAT_ID":33312,"ELEMENT_SET_NO":999,"REV_AT_EPOCH":95100,"BSTAR":0.0001818221,"MEAN_MOTION_DOT":2.525e-5,"MEAN_MOTION_DDOT":0}]
